CCSDS_OEM_VERS = 1.0
CREATION_DATE  = 2017-05-11T11:42:17
ORIGINATOR     = GMAT USER

META_START
OBJECT_NAME          = MOPSSat_alt_35785_km_RAAN_180_131
OBJECT_ID            = SatId
CENTER_NAME          = Earth
REF_FRAME            = EME2000
TIME_SYSTEM          = UTC
START_TIME           = 2017-01-01T00:00:00.000
USEABLE_START_TIME   = 2017-01-01T00:00:00.000
USEABLE_STOP_TIME    = 2017-01-02T00:00:00.000
STOP_TIME            = 2017-01-02T00:00:00.000
INTERPOLATION        = Lagrange
INTERPOLATION_DEGREE = 7 
META_STOP


                                                                                   

2017-01-01T07:01:40.000   4.079764418594270e+04  -3.180587169801713e+04  -5.769371410051295e-01   2.063014721039285e+00   1.304063138506289e+00  -6.980997167402181e-05
2017-01-01T07:01:50.000   4.081826846006966e+04  -3.179282648911136e+04  -5.776354496804058e-01   2.061840027324968e+00   1.304978461692527e+00  -6.985175923108954e-05
2017-01-01T07:02:00.000   4.083888098705478e+04  -3.177977213106938e+04  -5.783341761780136e-01   2.060665301995598e+00   1.305892971690839e+00  -6.989353644934856e-05
2017-01-01T07:02:10.000   4.085948176650271e+04  -3.176670863207071e+04  -5.790333203917337e-01   2.059490545282940e+00   1.306806669121417e+00  -6.993530330579156e-05
2017-01-01T07:02:20.000   4.088007079804483e+04  -3.175363600027397e+04  -5.797328822159060e-01   2.058315757416789e+00   1.307719554604828e+00  -6.997705977746237e-05
2017-01-01T07:02:30.000   4.090064808136273e+04  -3.174055424380094e+04  -5.804328615462822e-01   2.057140938623581e+00   1.308631628763025e+00  -7.001880584150750e-05
2017-01-01T07:02:40.000   4.092121361612598e+04  -3.172746337077647e+04  -5.811332582778844e-01   2.055966089129971e+00   1.309542892216615e+00  -7.006054147504852e-05
2017-01-01T07:02:50.000   4.094176740226200e+04  -3.171436338915523e+04  -5.818340723142790e-01   2.054791209147345e+00   1.310453345596770e+00  -7.010226665573417e-05
2017-01-01T07:03:00.000   4.096230943962881e+04  -3.170125430693149e+04  -5.825353035563502e-01   2.053616298890588e+00   1.311362989530769e+00  -7.014398136107183e-05
2017-01-01T07:03:10.000   4.098283972813876e+04  -3.168813613206001e+04  -5.832369519065382e-01   2.052441358570989e+00   1.312271824647470e+00  -7.018568556868011e-05
2017-01-01T07:03:20.000   4.100335826727851e+04  -3.167500887276262e+04  -5.839390172524382e-01   2.051266388423719e+00   1.313179851556058e+00  -7.022737925531094e-05
2017-01-01T07:03:30.000   4.102386505658915e+04  -3.166187253722165e+04  -5.846414994831978e-01   2.050091388680358e+00   1.314087070867308e+00  -7.026906239782749e-05
2017-01-01T07:03:40.000   4.104436009554224e+04  -3.164872713365906e+04  -5.853443984852885e-01   2.048916359575987e+00   1.314993483188089e+00  -7.031073497295153e-05
2017-01-01T07:03:50.000   4.106484338386826e+04  -3.163557267012749e+04  -5.860477141536833e-01   2.047741301330432e+00   1.315899089135929e+00  -7.035239695793209e-05
2017-01-01T07:04:00.000   4.108531492128527e+04  -3.162240915468246e+04  -5.867514463826409e-01   2.046566214163745e+00   1.316803889326983e+00  -7.039404832999329e-05
2017-01-01T07:04:10.000   4.110577470756157e+04  -3.160923659534281e+04  -5.874555950678279e-01   2.045391098292635e+00   1.317707884378811e+00  -7.043568906646169e-05
2017-01-01T07:04:20.000   4.112622274249071e+04  -3.159605500010544e+04  -5.881601601055211e-01   2.044215953931853e+00   1.318611074909253e+00  -7.047731914471544e-05
2017-01-01T07:04:30.000   4.114665902588071e+04  -3.158286437695328e+04  -5.888651413921908e-01   2.043040781294845e+00   1.319513461535977e+00  -7.051893854216261e-05
2017-01-01T07:04:40.000   4.116708355752959e+04  -3.156966473387102e+04  -5.895705388236547e-01   2.041865580595174e+00   1.320415044875389e+00  -7.056054723619115e-05
2017-01-01T07:04:50.000   4.118749633721317e+04  -3.155645607885205e+04  -5.902763522947110e-01   2.040690352047165e+00   1.321315825542092e+00  -7.060214520414535e-05
2017-01-01T07:05:00.000   4.120789736466206e+04  -3.154323841991458e+04  -5.909825816982736e-01   2.039515095867295e+00   1.322215804147876e+00  -7.064373242327754e-05
2017-01-01T07:05:10.000   4.122828663962307e+04  -3.153001176506129e+04  -5.916892269275340e-01   2.038339812270626e+00   1.323114981304434e+00  -7.068530887087363e-05
2017-01-01T07:05:20.000   4.124866416159183e+04  -3.151677612245446e+04  -5.923962878666070e-01   2.037164501486293e+00   1.324013357611592e+00  -7.072687452370715e-05
2017-01-01T07:05:30.000   4.126902993013716e+04  -3.150353150020393e+04  -5.931037644018556e-01   2.035989163738735e+00   1.324910933671587e+00  -7.076842935870131e-05
2017-01-01T07:05:40.000   4.128938394478029e+04  -3.149027790644587e+04  -5.938116564176835e-01   2.034813799254681e+00   1.325807710083753e+00  -7.080997335268283e-05
2017-01-01T07:05:50.000   4.130972620546322e+04  -3.147701534903803e+04  -5.945199638128139e-01   2.033638408236111e+00   1.326703687465157e+00  -7.085150648333577e-05
2017-01-01T07:06:00.000   4.133005671208140e+04  -3.146374383586362e+04  -5.952286864840576e-01   2.032462990887219e+00   1.327598866430005e+00  -7.089302872825034e-05
2017-01-01T07:06:10.000   4.135037546458988e+04  -3.145046337476269e+04  -5.959378243299813e-01   2.031287547408322e+00   1.328493247594328e+00  -7.093454006513813e-05
2017-01-01T07:06:20.000   4.137068246273848e+04  -3.143717397370281e+04  -5.966473772417825e-01   2.030112078011061e+00   1.329386831564285e+00  -7.097604047129586e-05
2017-01-01T07:06:30.000   4.139097770626883e+04  -3.142387564065273e+04  -5.973573451100481e-01   2.028936582907116e+00   1.330279618944881e+00  -7.101752992400329e-05
2017-01-01T07:06:40.000   4.141126119491374e+04  -3.141056838358185e+04  -5.980677278247790e-01   2.027761062308201e+00   1.331171610339919e+00  -7.105900840052343e-05
2017-01-01T07:06:50.000   4.143153292820368e+04  -3.139725221058936e+04  -5.987785252685033e-01   2.026585516437375e+00   1.332062806343533e+00  -7.110047587770227e-05
2017-01-01T07:07:00.000   4.145179290572806e+04  -3.138392712973080e+04  -5.994897373255288e-01   2.025409945513815e+00   1.332953207551640e+00  -7.114193233250750e-05
2017-01-01T07:07:10.000   4.147204112703202e+04  -3.137059314908629e+04  -6.002013638783059e-01   2.024234349758808e+00   1.333842814557412e+00  -7.118337774181644e-05
2017-01-01T07:07:20.000   4.149227759207352e+04  -3.135725027645958e+04  -6.009134048234834e-01   2.023058729369237e+00   1.334731627971367e+00  -7.122481208335424e-05
2017-01-01T07:07:30.000   4.151250230076615e+04  -3.134389851967889e+04  -6.016258600558567e-01   2.021883084544100e+00   1.335619648401269e+00  -7.126623533475547e-05
2017-01-01T07:07:40.000   4.153271525308276e+04  -3.133053788652911e+04  -6.023387294719886e-01   2.020707415478518e+00   1.336506876456695e+00  -7.130764747377689e-05
2017-01-01T07:07:50.000   4.155291644879198e+04  -3.131716838492357e+04  -6.030520129610352e-01   2.019531722378958e+00   1.337393312737431e+00  -7.134904847775643e-05
2017-01-01T07:08:00.000   4.157310588765427e+04  -3.130379002277685e+04  -6.037657104115414e-01   2.018356005451939e+00   1.338278957842116e+00  -7.139043832401613e-05
2017-01-01T07:08:10.000   4.159328356942125e+04  -3.129040280800426e+04  -6.044798217114621e-01   2.017180264904022e+00   1.339163812368202e+00  -7.143181698986033e-05
2017-01-01T07:08:20.000   4.161344949364325e+04  -3.127700674865186e+04  -6.051943467412447e-01   2.016004500953124e+00   1.340047876903548e+00  -7.147318445218253e-05
2017-01-01T07:08:30.000   4.163360365992914e+04  -3.126360185272180e+04  -6.059092853831262e-01   2.014828713813294e+00   1.340931152037781e+00  -7.151454068799646e-05
2017-01-01T07:08:40.000   4.165374606784181e+04  -3.125018812824241e+04  -6.066246375174074e-01   2.013652903700821e+00   1.341813638357729e+00  -7.155588567422301e-05
2017-01-01T07:08:50.000   4.167387671736043e+04  -3.123676558296029e+04  -6.073404030388676e-01   2.012477070807258e+00   1.342695336467663e+00  -7.159721938863520e-05
2017-01-01T07:09:00.000   4.169399560841684e+04  -3.122333422464887e+04  -6.080565818403115e-01   2.011301215326474e+00   1.343576246968997e+00  -7.163854180891050e-05
2017-01-01T07:09:10.000   4.171410274101541e+04  -3.120989406102889e+04  -6.087731738168134e-01   2.010125337447667e+00   1.344456370465533e+00  -7.167985291287528e-05
2017-01-01T07:09:20.000   4.173419811491061e+04  -3.119644509998192e+04  -6.094901788543216e-01   2.008949437374145e+00   1.345335707549326e+00  -7.172115267784701e-05
2017-01-01T07:09:30.000   4.175428172987323e+04  -3.118298734937435e+04  -6.102075968390532e-01   2.007773515307832e+00   1.346214258812363e+00  -7.176244108117652e-05
2017-01-01T07:09:40.000   4.177435358563096e+04  -3.116952081709662e+04  -6.109254276554013e-01   2.006597571452727e+00   1.347092024843954e+00  -7.180371810012766e-05
2017-01-01T07:09:50.000   4.179441368188528e+04  -3.115604551105312e+04  -6.116436711864753e-01   2.005421606013968e+00   1.347969006231496e+00  -7.184498371190824e-05
2017-01-01T07:10:00.000   4.181446201833067e+04  -3.114256143914831e+04  -6.123623273148430e-01   2.004245619196660e+00   1.348845203561300e+00  -7.188623789371286e-05
2017-01-01T07:10:10.000   4.183449859466204e+04  -3.112906860928181e+04  -6.130813959227844e-01   2.003069611205455e+00   1.349720617418910e+00  -7.192748062273752e-05
2017-01-01T07:10:20.000   4.185452341064667e+04  -3.111556702930059e+04  -6.138008768948519e-01   2.001893582240341e+00   1.350595248392262e+00  -7.196871187632896e-05
2017-01-01T07:10:30.000   4.187453646607602e+04  -3.110205670703072e+04  -6.145207701161711e-01   2.000717532499456e+00   1.351469097069570e+00  -7.200993163188437e-05
2017-01-01T07:10:40.000   4.189453776076575e+04  -3.108853765027739e+04  -6.152410754724383e-01   1.999541462179082e+00   1.352342164039325e+00  -7.205113986685192e-05
